NORAD_CAT_ID,OBJECT_NAME,OBJECT_TYPE,EPOCH,MEAN_MOTION,ECCENTRICITY,INCLINATION,RA_OF_ASC_NODE,ARG_OF_PERICENTER,MEAN_ANOMALY,BSTAR,MEAN_MOTION_DOT,MEAN_MOTION_DDOT,TLE_LINE0,TLE_LINE1,TLE_LINE2,SEMIMAJOR_AXIS,PERIOD,APOGEE,PERIGEE,DECAYED
54784.0,STARLINK-5442,PAYLOAD,2024-07-11 12:50:01,15.0884478,0.0001144,53.2154,245.0163,87.69,272.4223,7.6695e-05,9.33e-06,0.0,0 STARLINK-5442,1 54784U 22175AC  24193.53474056  .00000933  00000-0  76695-4 0  9990,2 54784  53.2154 245.0163 0001144  87.6900 272.4223 15.08844780 88419,6917.866,95.437,540.522,538.939,0.0
54784.0,STARLINK-5442,PAYLOAD,2024-07-11 20:46:57,15.08845534,0.0001158,53.2156,243.5292,84.0476,276.0648,0.00010676,1.412e-05,0.0,0 STARLINK-5442,1 54784U 22175AC  24193.86593897  .00001412  00000-0  10676-3 0  9990,2 54784  53.2156 243.5292 0001158  84.0476 276.0648 15.08845534 86306,6917.863,95.437,540.53,538.927,0.0
54784.0,STARLINK-5442,PAYLOAD,2024-07-12 12:40:48,15.08839779,0.0001465,53.2171,240.555,86.861,273.2549,0.00010828,1.436e-05,0.0,0 STARLINK-5442,1 54784U 22175AC  24194.52834458  .00001436  00000-0  10828-3 0  9990,2 54784  53.2171 240.5550 0001465  86.8610 273.2549 15.08839779 86402,6917.881,95.438,540.76,538.733,0.0
54784.0,STARLINK-5442,PAYLOAD,2024-07-12 20:37:44,15.08840984,0.0001453,53.2171,239.0676,88.5086,271.6072,0.00011282,1.508e-05,0.0,0 STARLINK-5442,1 54784U 22175AC  24194.85954349  .00001508  00000-0  11282-3 0  9993,2 54784  53.2171 239.0676 0001453  88.5086 271.6072 15.08840984 88615,6917.877,95.437,540.748,538.737,0.0
54784.0,STARLINK-5442,PAYLOAD,2024-07-13 09:20:49,15.08841299,0.0001439,53.2168,236.689,100.4489,259.6666,2.449e-05,1.02e-06,0.0,0 STARLINK-5442,1 54784U 22175AC  24195.38946506  .00000102  00000-0  24490-4 0  9993,2 54784  53.2168 236.6890 0001439 100.4489 259.6666 15.08841299 88690,6917.876,95.437,540.737,538.746,0.0
54784.0,STARLINK-5442,PAYLOAD,2024-07-14 02:50:04,15.08840372,0.0001466,53.2167,233.4179,96.2645,263.8514,7.3541e-05,8.83e-06,0.0,0 STARLINK-5442,1 54784U 22175AC  24196.11810505  .00000883  00000-0  73541-4 0  9991,2 54784  53.2167 233.4179 0001466  96.2645 263.8514 15.08840372 86643,6917.879,95.438,540.758,538.73,0.0
54784.0,STARLINK-5442,PAYLOAD,2024-07-14 09:11:37,15.0883791,0.0001425,53.2163,232.2286,94.4481,265.6674,5.3447e-05,5.63e-06,0.0,0 STARLINK-5442,1 54784U 22175AC  24196.38306720  .00000563  00000-0  53447-4 0  9997,2 54784  53.2163 232.2286 0001425  94.4481 265.6674 15.08837910 88843,6917.887,95.438,540.738,538.766,0.0
54784.0,STARLINK-5442,PAYLOAD,2024-07-15 09:02:24,15.08837826,0.0001304,53.2157,227.768,92.2568,267.8574,7.4217e-05,8.93e-06,0.0,0 STARLINK-5442,1 54784U 22175AC  24197.37666779  .00000893  00000-0  74217-4 0  9994,2 54784  53.2157 227.7680 0001304  92.2568 267.8574 15.08837826 86837,6917.887,95.438,540.654,538.85,0.0
54784.0,STARLINK-5442,PAYLOAD,2024-07-15 18:34:42,15.0884286,0.0001267,53.2155,225.9834,90.6988,269.415,9.0026e-05,1.145e-05,0.0,0 STARLINK-5442,1 54784U 22175AC  24197.77410448  .00001145  00000-0  90026-4 0  9995,2 54784  53.2155 225.9834 0001267  90.6988 269.4150 15.08842860 89051,6917.872,95.437,540.613,538.86,0.0
54784.0,STARLINK-5442,PAYLOAD,2024-07-16 07:17:48,15.08834635,0.0001375,53.2162,223.6059,94.1828,265.9322,5.0254e-05,5.12e-06,0.0,0 STARLINK-5442,1 54784U 22175AC  24198.30403130  .00000512  00000-0  50254-4 0  9991,2 54784  53.2162 223.6059 0001375  94.1828 265.9322 15.08834635 89137,6917.897,95.438,540.713,538.811,0.0
54784.0,STARLINK-5442,PAYLOAD,2024-07-17 05:33:12,15.0883778,0.000146,53.2165,219.4451,102.7475,257.368,7.2234e-05,8.62e-06,0.0,0 STARLINK-5442,1 54784U 22175AC  24199.23139069  .00000862  00000-0  72234-4 0  9991,2 54784  53.2165 219.4451 0001460 102.7475 257.3680 15.08837780 87110,6917.887,95.438,540.762,538.742,0.0
54784.0,STARLINK-5442,PAYLOAD,2024-07-17 10:19:21,15.08835306,0.0001412,53.2162,218.5525,100.771,259.3441,4.4358e-05,4.18e-06,0.0,0 STARLINK-5442,1 54784U 22175AC  24199.43011331  .00000418  00000-0  44358-4 0  9997,2 54784  53.2162 218.5525 0001412 100.7710 259.3441 15.08835306 89308,6917.895,95.438,540.737,538.783,0.0
54784.0,STARLINK-5442,PAYLOAD,2024-07-18 10:10:08,15.08840629,0.0001319,53.2153,214.0905,95.4237,264.6905,8.0214e-05,9.89e-06,0.0,0 STARLINK-5442,1 54784U 22175AC  24200.42371155  .00000989  00000-0  80214-4 0  9996,2 54784  53.2153 214.0905 0001319  95.4237 264.6905 15.08840629 87295,6917.878,95.438,540.656,538.831,0.0
54784.0,STARLINK-5442,PAYLOAD,2024-07-18 18:07:04,15.08843992,0.000135,53.2155,212.6031,87.6036,272.5111,0.00010081,1.317e-05,0.0,0 STARLINK-5442,1 54784U 22175AC  24200.75490936  .00001317  00000-0  10081-3 0  9991,2 54784  53.2155 212.6031 0001350  87.6036 272.5111 15.08843992 89505,6917.868,95.437,540.667,538.799,0.0
54784.0,STARLINK-5442,PAYLOAD,2024-07-19 08:25:32,15.08843623,0.0001308,53.2155,209.9247,94.0835,266.0306,0.00011682,1.572e-05,0.0,0 STARLINK-5442,1 54784U 22175AC  24201.35106890  .00001572  00000-0  11682-3 0  9992,2 54784  53.2155 209.9247 0001308  94.0835 266.0306 15.08843623 89599,6917.869,95.437,540.639,538.829,0.0
54784.0,STARLINK-5442,PAYLOAD,2024-07-19 17:57:50,15.08845404,0.0001299,53.2156,208.1401,94.4094,265.7047,0.00011882,1.604e-05,0.0,0 STARLINK-5442,1 54784U 22175AC  24201.74850594  .00001604  00000-0  11882-3 0  9990,2 54784  53.2156 208.1401 0001299  94.4094 265.7047 15.08845404 87497,6917.864,95.437,540.628,538.83,0.0
54784.0,STARLINK-5442,PAYLOAD,2024-07-20 05:05:33,15.08839829,0.0001358,53.2157,206.06,93.4973,266.6175,5.5608e-05,5.97e-06,0.0,0 STARLINK-5442,1 54784U 22175AC  24202.21219165  .00000597  00000-0  55608-4 0  9991,2 54784  53.2157 206.0600 0001358  93.4973 266.6175 15.08839829 87561,6917.881,95.438,540.685,538.806,0.0
54784.0,STARLINK-5442,PAYLOAD,2024-07-20 06:40:56,15.08838366,0.0001357,53.2157,205.7629,90.246,269.8687,3.639e-05,2.91e-06,0.0,0 STARLINK-5442,1 54784U 22175AC  24202.27843306  .00000291  00000-0  36390-4 0  9995,2 54784  53.2157 205.7629 0001357  90.2460 269.8687 15.08838366 89732,6917.885,95.438,540.689,538.812,0.0
54784.0,STARLINK-5442,PAYLOAD,2024-07-20 17:48:38,15.08843566,0.0001375,53.2159,203.6817,89.1114,271.0036,6.3131e-05,7.17e-06,0.0,0 STARLINK-5442,1 54784U 22175AC  24202.74210919  .00000717  00000-0  63131-4 0  9991,2 54784  53.2159 203.6817 0001375  89.1114 271.0036 15.08843566 89802,6917.869,95.437,540.686,538.783,0.0
54784.0,STARLINK-5442,PAYLOAD,2024-07-21 06:31:43,15.08840147,0.0001399,53.2161,201.3032,89.078,271.0373,4.4187e-05,4.15e-06,0.0,0 STARLINK-5442,1 54784U 22175AC  24203.27203121  .00000415  00000-0  44187-4 0  9992,2 54784  53.2161 201.3032 0001399  89.0780 271.0373 15.08840147 87728,6917.88,95.438,540.713,538.777,0.0
54784.0,STARLINK-5442,PAYLOAD,2024-07-22 06:22:30,15.08837386,0.0001432,53.2165,196.8425,90.4267,269.6889,5.3688e-05,5.67e-06,0.0,0 STARLINK-5442,1 54784U 22175AC  24204.26563292  .00000567  00000-0  53688-4 0  9994,2 54784  53.2165 196.8425 0001432  90.4267 269.6889 15.08837386 90034,6917.888,95.438,540.744,538.763,0.0
54784.0,STARLINK-5442,PAYLOAD,2024-07-23 04:37:53,15.08854004,0.0001366,53.2163,192.6801,86.417,273.6979,0.00019163,2.764e-05,0.0,0 STARLINK-5442,1 54784U 22175AC  24205.19297789  .00002764  00000-0  19163-3 0  9992,2 54784  53.2163 192.6801 0001366  86.4170 273.6979 15.08854004 88014,6917.838,95.437,540.648,538.758,0.0
54784.0,STARLINK-5442,PAYLOAD,2024-07-23 15:45:34,15.08855031,0.0001362,53.2155,190.5982,85.8672,274.2475,0.00020056,2.907e-05,0.0,0 STARLINK-5442,1 54784U 22175AC  24205.65665451  .00002907  00000-0  20056-3 0  9990,2 54784  53.2155 190.5982 0001362  85.8672 274.2475 15.08855031 90245,6917.834,95.437,540.642,538.757,0.0
54784.0,STARLINK-5442,PAYLOAD,2024-07-24 04:28:41,15.08821796,0.0001307,53.2148,188.2189,93.0029,267.1113,-0.00026016,-4.424e-05,0.0,0 STARLINK-5442,1 54784U 22175AC  24206.18659502 -.00004424  00000-0 -26016-3 0  9999,2 54784  53.2148 188.2189 0001307  93.0029 267.1113 15.08821796 88165,6917.936,95.439,540.705,538.897,0.0
54784.0,STARLINK-5442,PAYLOAD,2024-07-24 07:39:28,15.0882448,0.0001323,53.2154,187.6248,95.1393,264.975,-0.00021525,-3.71e-05,0.0,0 STARLINK-5442,1 54784U 22175AC  24206.31907495 -.00003710  00000-0 -21525-3 0  9998,2 54784  53.2154 187.6248 0001323  95.1393 264.9750 15.08824480 90344,6917.928,95.439,540.708,538.878,0.0
54784.0,STARLINK-5442,PAYLOAD,2024-07-25 04:19:28,15.08836185,0.0001389,53.2156,183.7595,102.2615,257.8533,-8.5123e-05,-1.642e-05,0.0,0 STARLINK-5442,1 54784U 22175AC  24207.18019444 -.00001642  00000-0 -85123-4 0  9999,2 54784  53.2156 183.7595 0001389 102.2615 257.8533 15.08836185 88316,6917.892,95.438,540.718,538.796,0.0
54784.0,STARLINK-5442,PAYLOAD,2024-07-25 05:54:52,15.08833401,0.0001257,53.2151,183.4614,99.4997,260.6137,4.3132e-05,3.99e-06,0.0,0 STARLINK-5442,1 54784U 22175AC  24207.24643566  .00000399  00000-0  43132-4 0  9994,2 54784  53.2151 183.4614 0001257  99.4997 260.6137 15.08833401 90485,6917.901,95.438,540.635,538.896,0.0
54784.0,STARLINK-5442,PAYLOAD,2024-07-25 07:30:15,15.08835756,0.0001277,53.2153,183.1642,102.2757,257.8378,0.0001262,1.721e-05,0.0,0 STARLINK-5442,1 54784U 22175AC  24207.31267577  .00001721  00000-0  12620-3 0  9993,2 54784  53.2153 183.1642 0001277 102.2757 257.8378 15.08835756 90495,6917.893,95.438,540.642,538.875,0.0
54784.0,STARLINK-5442,PAYLOAD,2024-07-26 07:21:02,15.08852594,0.0001235,53.2149,178.7015,103.2299,256.8831,0.00068728,0.00010671,0.0,0 STARLINK-5442,1 54784U 22175AC  24208.30627857  .00010671  00000-0  68728-3 0  9998,2 54784  53.2149 178.7015 0001235 103.2299 256.8831 15.08852594 88488,6917.842,95.437,540.561,538.853,0.0
54784.0,STARLINK-5442,PAYLOAD,2024-07-26 15:17:57,15.08863317,0.0001371,53.2156,177.2147,89.2427,270.8722,0.00088344,0.00013809,0.0,0 STARLINK-5442,1 54784U 22175AC  24208.63747466  .00013809  00000-0  88344-3 0  9995,2 54784  53.2156 177.2147 0001371  89.2427 270.8722 15.08863317 90699,6917.809,95.436,540.623,538.726,0.0
